ION SCV-008             
1 55051U 23001AU  26068.82429008  .00008336  00000+0  31423-3 0  9992
2 55051  97.5676 163.6060 0015192   8.5420 351.6074 15.27226640176169
STARLINK-36534          
1 67496U 26012D   26068.06145940  .00028049  00000+0  10243-2 0  9998
2 67496  43.0005 318.1353 0001647 269.2852  90.7811 15.27601101  7661
